NORAD_CAT_ID,OBJECT_NAME,OBJECT_TYPE,EPOCH,MEAN_MOTION,ECCENTRICITY,INCLINATION,RA_OF_ASC_NODE,ARG_OF_PERICENTER,MEAN_ANOMALY,BSTAR,MEAN_MOTION_DOT,MEAN_MOTION_DDOT,TLE_LINE0,TLE_LINE1,TLE_LINE2,SEMIMAJOR_AXIS,PERIOD,APOGEE,PERIGEE,DECAYED
55416.0,STARLINK-5624,PAYLOAD,2023-04-18 17:11:51,15.69929176,0.0003066,70.0014,233.1233,275.6181,84.4665,2.9712e-05,3.362e-05,0.0,0 STARLINK-5624,1 55416U 23014AB  23108.71656617  .00003362  00000-0  29712-4 0  9993,2 55416  70.0014 233.1233 0003066 275.6181  84.4665 15.69929176 12299,6737.237,91.724,361.167,357.036,0.0
55416.0,STARLINK-5624,PAYLOAD,2023-04-19 08:29:23,15.69894632,0.0003948,70.0032,231.3336,230.4289,129.6559,-4.7856e-05,-5.957e-05,0.0,0 STARLINK-5624,1 55416U 23014AB  23109.35374856 -.00005957  00000-0 -47856-4 0  9999,2 55416  70.0032 231.3336 0003948 230.4289 129.6559 15.69894632 12393,6737.335,91.726,361.86,356.541,0.0
55416.0,STARLINK-5624,PAYLOAD,2023-04-19 11:32:55,15.69857971,0.0005298,70.0028,230.9744,250.0372,110.0253,-0.00012517,-0.00015203,0.0,0 STARLINK-5624,1 55416U 23014AB  23109.48119919 -.00015203  00000-0 -12517-3 0  9990,2 55416  70.0028 230.9744 0005298 250.0372 110.0253 15.69857971 12410,6737.44,91.728,362.875,355.736,0.0
55416.0,STARLINK-5624,PAYLOAD,2023-04-19 17:40:45,15.6885121,0.0002894,70.0022,230.2597,266.6154,93.471,-0.0022507,-0.00251488,0.0,0 STARLINK-5624,1 55416U 23014AB  23109.73663931 -.00251488  00000-0 -22507-2 0  9992,2 55416  70.0022 230.2597 0002894 266.6154  93.4710 15.68851210 13392,6740.322,91.787,364.138,360.237,0.0
55416.0,STARLINK-5624,PAYLOAD,2023-04-20 01:20:04,15.68409051,0.0002836,69.9997,229.365,291.6765,68.4128,-0.002858,-0.00311339,0.0,0 STARLINK-5624,1 55416U 23014AB  23110.05560732 -.00311339  00000-0 -28580-2 0  9993,2 55416  69.9997 229.3650 0002836 291.6765  68.4128 15.68409051 12500,6741.589,91.813,365.366,361.542,0.0
55416.0,STARLINK-5624,PAYLOAD,2023-04-20 14:00:01,15.66498336,0.0003391,70.0006,227.8858,275.0115,181.7394,-0.0092438,-0.0087104,0.0,0 STARLINK-5624,1 55416U 23014AB  23110.58334491 -.00871040  00000-0 -92438-2 0  9995,2 55416  70.0006 227.8858 0003391 275.0115 181.7394 15.66498336  1301,6747.07,91.925,371.223,366.647,0.0
55416.0,STARLINK-5624,PAYLOAD,2023-04-20 16:00:00,15.66333393,0.0003239,70.0007,227.6526,274.3027,292.2326,-0.0091376,-0.00856753,0.0,0 STARLINK-5624,1 55416U 23014AB  23110.66667824 -.00856753  00000-0 -91376-2 0  9997,2 55416  70.0007 227.6526 0003239 274.3027 292.2326 15.66333393 12606,6747.544,91.934,371.594,367.223,0.0
55416.0,STARLINK-5624,PAYLOAD,2023-04-20 22:00:00,15.65899492,0.0003187,70.0005,226.9537,272.7302,262.8597,-0.010424,-0.00964734,0.0,0 STARLINK-5624,1 55416U 23014AB  23110.91667824 -.00964734  00000-0 -10424-1 0  9998,2 55416  70.0005 226.9537 0003187 272.7302 262.8597 15.65899492  1302,6748.79,91.96,372.806,368.504,0.0
55416.0,STARLINK-5624,PAYLOAD,2023-04-21 06:00:00,15.65225429,0.000335,70.0008,226.0228,262.7504,350.9222,-0.010074,-0.00912465,0.0,0 STARLINK-5624,1 55416U 23014AB  23111.25001157 -.00912465  00000-0 -10074-1 0  9992,2 55416  70.0008 226.0228 0003350 262.7504 350.9222 15.65225429 12699,6750.728,92.0,374.854,370.331,0.0
55416.0,STARLINK-5624,PAYLOAD,2023-04-21 14:00:01,15.64540292,0.0003404,70.0009,225.0928,269.8157,61.1716,-0.0099226,-0.00877692,0.0,0 STARLINK-5624,1 55416U 23014AB  23111.58334491 -.00877692  00000-0 -99226-2 0  9997,2 55416  70.0009 225.0928 0003404 269.8157  61.1716 15.64540292  1300,6752.698,92.04,376.862,372.265,0.0
55416.0,STARLINK-5624,PAYLOAD,2023-04-21 22:00:00,15.63935089,0.0003512,70.0004,224.1635,271.893,135.591,-0.011149,-0.0095505,0.0,0 STARLINK-5624,1 55416U 23014AB  23111.91667824 -.00955050  00000-0 -11149-1 0  9995,2 55416  70.0004 224.1635 0003512 271.8930 135.5910 15.63935089 12790,6754.44,92.075,378.677,373.933,0.0
55416.0,STARLINK-5624,PAYLOAD,2023-04-22 14:00:01,15.62584192,0.0003322,70.0004,222.3077,271.2769,286.9031,-0.010705,-0.00876605,0.0,0 STARLINK-5624,1 55416U 23014AB  23112.58334491 -.00876605  00000-0 -10705-1 0  9995,2 55416  70.0004 222.3077 0003322 271.2769 286.9031 15.62584192  1307,6758.333,92.155,382.443,377.952,0.0
55416.0,STARLINK-5624,PAYLOAD,2023-04-22 22:00:01,15.61979071,0.0003346,70.0002,221.3811,271.5614,0.8351,-0.012095,-0.0095895,0.0,0 STARLINK-5624,1 55416U 23014AB  23112.91668981 -.00958950  00000-0 -12095-1 0  9994,2 55416  70.0002 221.3811 0003346 271.5614   0.8351 15.61979071  1309,6760.078,92.191,384.205,379.681,0.0
55416.0,STARLINK-5624,PAYLOAD,2023-04-23 06:00:00,15.61317049,0.0003603,70.0005,220.4558,267.6418,78.0718,-0.011836,-0.00918582,0.0,0 STARLINK-5624,1 55416U 23014AB  23113.25001157 -.00918582  00000-0 -11836-1 0  9997,2 55416  70.0005 220.4558 0003603 267.6418  78.0718 15.61317049 13009,6761.989,92.23,386.29,381.417,0.0
55416.0,STARLINK-5624,PAYLOAD,2023-04-23 14:00:01,15.60633603,0.0003623,70.0003,219.5312,273.7413,144.5924,-0.011743,-0.00890265,0.0,0 STARLINK-5624,1 55416U 23014AB  23113.58334491 -.00890265  00000-0 -11743-1 0  9997,2 55416  70.0003 219.5312 0003623 273.7413 144.5924 15.60633603  1303,6763.963,92.27,388.278,383.377,0.0
55416.0,STARLINK-5624,PAYLOAD,2023-04-23 22:00:00,15.60014483,0.0003472,69.9998,218.6072,272.5528,217.5864,-0.012803,-0.00942503,0.0,0 STARLINK-5624,1 55416U 23014AB  23113.91667824 -.00942503  00000-0 -12803-1 0  9994,2 55416  69.9998 218.6072 0003472 272.5528 217.5864 15.60014483  1305,6765.752,92.307,389.966,385.268,0.0
55416.0,STARLINK-5624,PAYLOAD,2023-04-24 14:00:01,15.5866828,0.0003631,69.9999,216.7621,271.3295,0.1175,-0.012378,-0.00872142,0.0,0 STARLINK-5624,1 55416U 23014AB  23114.58334491 -.00872142  00000-0 -12378-1 0  9997,2 55416  69.9999 216.7621 0003631 271.3295   0.1175 15.58668280  1308,6769.647,92.387,393.97,389.054,0.0
55416.0,STARLINK-5624,PAYLOAD,2023-04-25 06:00:00,15.57408135,0.0003525,69.9997,214.9209,268.275,141.317,-0.01389,-0.00927663,0.0,0 STARLINK-5624,1 55416U 23014AB  23115.25001157 -.00927663  00000-0 -13890-1 0  9991,2 55416  69.9997 214.9209 0003525 268.2750 141.3170 15.57408135 13318,6773.298,92.461,397.551,392.776,0.0
55416.0,STARLINK-5624,PAYLOAD,2023-04-25 14:00:01,15.56707882,0.0003498,69.9993,214.0016,276.3771,201.2071,-0.013181,-0.0086341,0.0,0 STARLINK-5624,1 55416U 23014AB  23115.58335648 -.00863410  00000-0 -13181-1 0  9994,2 55416  69.9993 214.0016 0003498 276.3771 201.2071 15.56707882  1305,6775.33,92.503,399.565,394.825,0.0
55416.0,STARLINK-5624,PAYLOAD,2023-04-26 14:00:01,15.54753655,0.000342,69.9994,211.249,274.3315,42.2197,-0.014222,-0.0086621,0.0,0 STARLINK-5624,1 55416U 23014AB  23116.58334491 -.00866210  00000-0 -14222-1 0  9998,2 55416  69.9994 211.2490 0003420 274.3315  42.2197 15.54753655  1307,6781.006,92.619,405.19,400.552,0.0
55416.0,STARLINK-5624,PAYLOAD,2023-04-26 22:00:00,15.54135501,0.0003373,69.999,210.3332,272.5018,108.8204,-0.015788,-0.00933228,0.0,0 STARLINK-5624,1 55416U 23014AB  23116.91667824 -.00933228  00000-0 -15788-1 0  9996,2 55416  69.9990 210.3332 0003373 272.5018 108.8204 15.54135501  1307,6782.804,92.656,406.957,402.381,0.0
55416.0,STARLINK-5624,PAYLOAD,2023-04-27 06:00:02,15.5350286,0.0003299,69.9992,209.4183,268.0988,177.2724,-0.016361,-0.00943868,0.0,0 STARLINK-5624,1 55416U 23014AB  23117.25002315 -.00943868  00000-0 -16361-1 0  9991,2 55416  69.9992 209.4183 0003299 268.0988 177.2724 15.53502860 13625,6784.645,92.694,408.748,404.272,0.0
55416.0,STARLINK-5624,PAYLOAD,2023-04-27 14:00:01,15.52796748,0.0003147,69.9991,208.5045,274.6368,233.9692,-0.015236,-0.00864075,0.0,0 STARLINK-5624,1 55416U 23014AB  23117.58335648 -.00864075  00000-0 -15236-1 0  9997,2 55416  69.9991 208.5045 0003147 274.6368 233.9692 15.52796748  1303,6786.702,92.736,410.703,406.431,0.0
55416.0,STARLINK-5624,PAYLOAD,2023-04-28 06:00:02,15.51362997,0.0003252,69.9994,206.6793,268.7942,3.9016,-0.0034902,-0.00201057,0.0,0 STARLINK-5624,1 55416U 23014AB  23118.25002315 -.00201057  00000-0 -34902-2 0  9991,2 55416  69.9994 206.6793 0003252 268.7942   3.9016 15.51362997 13788,6790.883,92.822,414.956,410.539,0.0
55416.0,STARLINK-5624,PAYLOAD,2023-04-28 14:00:01,15.51206151,0.0003352,69.9993,205.7681,275.2943,58.331,0.00030843,0.00017982,0.0,0 STARLINK-5624,1 55416U 23014AB  23118.58334491  .00017982  00000-0  30843-3 0  9991,2 55416  69.9993 205.7681 0003352 275.2943  58.3310 15.51206151 13834,6791.34,92.831,415.482,410.929,0.0
55416.0,STARLINK-5624,PAYLOAD,2023-04-29 14:00:01,15.51192461,0.0003523,69.9996,203.0338,277.0634,239.3664,0.00081233,0.00047786,0.0,0 STARLINK-5624,1 55416U 23014AB  23119.58335648  .00047786  00000-0  81233-3 0  9991,2 55416  69.9996 203.0338 0003523 277.0634 239.3664 15.51192461 13981,6791.38,92.832,415.638,410.853,0.0
55416.0,STARLINK-5624,PAYLOAD,2023-04-30 06:00:00,15.51253671,0.0003505,69.9997,201.2111,270.941,7.2235,-0.0004855,-0.00028611,0.0,0 STARLINK-5624,1 55416U 23014AB  23120.25001157 -.00028611  00000-0 -48550-3 0  9995,2 55416  69.9997 201.2111 0003505 270.9410   7.2235 15.51253671 14095,6791.202,92.828,415.447,410.686,0.0
55416.0,STARLINK-5624,PAYLOAD,2023-04-30 14:00:01,15.51192849,0.0003481,69.9996,200.2998,279.1619,59.9438,0.00084849,0.00049935,0.0,0 STARLINK-5624,1 55416U 23014AB  23120.58334491  .00049935  00000-0  84849-3 0  9992,2 55416  69.9996 200.2998 0003481 279.1619  59.9438 15.51192849  1309,6791.379,92.832,415.608,410.88,0.0
55416.0,STARLINK-5624,PAYLOAD,2023-05-01 00:00:00,15.51192482,0.0003482,69.9997,199.1606,274.5111,230.7326,0.00090168,0.00053096,0.0,0 STARLINK-5624,1 55416U 23014AB  23121.00001157  .00053096  00000-0  90168-3 0  9994,2 55416  69.9997 199.1606 0003482 274.5111 230.7326 15.51192482 14200,6791.38,92.832,415.61,410.88,0.0
55416.0,STARLINK-5624,PAYLOAD,2023-05-01 08:39:43,15.5122632,0.0003353,69.9971,198.1738,274.4084,85.6719,1.1961e-05,5.38e-06,0.0,0 STARLINK-5624,1 55416U 23014AB  23121.36091990  .00000538  00000-0  11961-4 0  9995,2 55416  69.9971 198.1738 0003353 274.4084  85.6719 15.51226320 14260,6791.281,92.83,415.424,410.869,0.0
